[{"OBJECT_NAME":"STARLINK-5763","OBJECT_ID":"2023-065C","EPOCH":"2026-03-09T22:00:01.999584","MEAN_MOTION":15.05557996,"ECCENTRICITY":0.00020078,"INCLINATION":42.9998,"RA_OF_ASC_NODE":209.382,"ARG_OF_PERICENTER":283.9887,"MEAN_ANOMALY":150.795,"EPHEMERIS_TYPE":0,"CLASSIFICATION_TYPE":"U","NORAD_CAT_ID":56505,"ELEMENT_SET_NO":999,"REV_AT_EPOCH":578,"BSTAR":0.0046083415,"MEAN_MOTION_DOT":0.00067934,"MEAN_MOTION_DDOT":0},{"OBJECT_NAME":"STUDSAT","OBJECT_ID":"2010-035B","EPOCH":"2026-03-09T18:37:00.077376","MEAN_MOTION":15.04045903,"ECCENTRICITY":0.00117838,"INCLINATION":98.1026,"RA_OF_ASC_NODE":330.9975,"ARG_OF_PERICENTER":15.8359,"MEAN_ANOMALY":344.3232,"EPHEMERIS_TYPE":0,"CLASSIFICATION_TYPE":"U","NORAD_CAT_ID":36796,"ELEMENT_SET_NO":999,"REV_AT_EPOCH":85020,"BSTAR":0.00039642444,"MEAN_MOTION_DOT":5.425e-5,"MEAN_MOTION_DDOT":0}]
